[{"OBJECT_NAME":"GRBBETA","OBJECT_ID":"2024-128C","EPOCH":"2026-04-27T04:12:54.540000","MEAN_MOTION":15.06219971,"ECCENTRICITY":0.00469539,"INCLINATION":61.9915,"RA_OF_ASC_NODE":35.1815,"ARG_OF_PERICENTER":123.9621,"MEAN_ANOMALY":236.5948,"EPHEMERIS_TYPE":0,"CLASSIFICATION_TYPE":"U","NORAD_CAT_ID":60237,"ELEMENT_SET_NO":999,"REV_AT_EPOCH":9858,"BSTAR":0.00035608181,"MEAN_MOTION_DOT":5.16e-5,"MEAN_MOTION_DDOT":0},{"OBJECT_NAME":"OOV-CUBE (TUBSAT-30)","OBJECT_ID":"2024-128F","EPOCH":"2026-04-27T05:09:51.278976","MEAN_MOTION":15.0251436,"ECCENTRICITY":0.00504311,"INCLINATION":61.9961,"RA_OF_ASC_NODE":43.2739,"ARG_OF_PERICENTER":122.5712,"MEAN_ANOMALY":238.0264,"EPHEMERIS_TYPE":0,"CLASSIFICATION_TYPE":"U","NORAD_CAT_ID":60240,"ELEMENT_SET_NO":999,"REV_AT_EPOCH":9845,"BSTAR":0.00023071907,"MEAN_MOTION_DOT":2.949e-5,"MEAN_MOTION_DDOT":0},{"OBJECT_NAME":"ROBUSTA-3A (MEDITERRANEE)","OBJECT_ID":"2024-128J","EPOCH":"2026-04-27T04:30:35.565696","MEAN_MOTION":15.10868737,"ECCENTRICITY":0.00478261,"INCLINATION":61.9882,"RA_OF_ASC_NODE":28.4836,"ARG_OF_PERICENTER":117.67,"MEAN_ANOMALY":242.926,"EPHEMERIS_TYPE":0,"CLASSIFICATION_TYPE":"U","NORAD_CAT_ID":60243,"ELEMENT_SET_NO":999,"REV_AT_EPOCH":9871,"BSTAR":0.00064654024,"MEAN_MOTION_DOT":0.00010904,"MEAN_MOTION_DDOT":0},{"OBJECT_NAME":"LASARSAT","OBJECT_ID":"2024-247Q","EPOCH":"2026-04-27T05:06:36.750240","MEAN_MOTION":15.43279568,"ECCENTRICITY":0.00054023,"INCLINATION":44.9747,"RA_OF_ASC_NODE":187.9588,"ARG_OF_PERICENTER":1.1726,"MEAN_ANOMALY":358.9174,"EPHEMERIS_TYPE":0,"CLASSIFICATION_TYPE":"U","NORAD_CAT_ID":62391,"ELEMENT_SET_NO":999,"REV_AT_EPOCH":7543,"BSTAR":0.0008395725,"MEAN_MOTION_DOT":0.00038029,"MEAN_MOTION_DDOT":0},{"OBJECT_NAME":"CROCUBE","OBJECT_ID":"2024-247T","EPOCH":"2026-04-27T04:49:47.310528","MEAN_MOTION":15.44760331,"ECCENTRICITY":0.00051134,"INCLINATION":44.9716,"RA_OF_ASC_NODE":186.0905,"ARG_OF_PERICENTER":359.4804,"MEAN_ANOMALY":0.6079,"EPHEMERIS_TYPE":0,"CLASSIFICATION_TYPE":"U","NORAD_CAT_ID":62394,"ELEMENT_SET_NO":999,"REV_AT_EPOCH":7545,"BSTAR":0.00088197328,"MEAN_MOTION_DOT":0.00042061,"MEAN_MOTION_DDOT":0},{"OBJECT_NAME":"FORESAIL-1 PRIME","OBJECT_ID":"2025-276DS","EPOCH":"2026-04-27T04:31:59.498976","MEAN_MOTION":15.18224292,"ECCENTRICITY":8.314e-5,"INCLINATION":97.4218,"RA_OF_ASC_NODE":191.4071,"ARG_OF_PERICENTER":301.6092,"MEAN_ANOMALY":58.5061,"EPHEMERIS_TYPE":0,"CLASSIFICATION_TYPE":"U","NORAD_CAT_ID":66778,"ELEMENT_SET_NO":999,"REV_AT_EPOCH":2266,"BSTAR":0.00028842567,"MEAN_MOTION_DOT":5.836e-5,"MEAN_MOTION_DDOT":0},{"OBJECT_NAME":"KNACKSAT-2","OBJECT_ID":"1998-067XZ","EPOCH":"2026-04-26T06:09:00.396576","MEAN_MOTION":15.5563873,"ECCENTRICITY":0.00123624,"INCLINATION":51.6294,"RA_OF_ASC_NODE":194.7914,"ARG_OF_PERICENTER":5.5713,"MEAN_ANOMALY":354.5413,"EPHEMERIS_TYPE":0,"CLASSIFICATION_TYPE":"U","NORAD_CAT_ID":67683,"ELEMENT_SET_NO":999,"REV_AT_EPOCH":1218,"BSTAR":0.00063921905,"MEAN_MOTION_DOT":0.00044626,"MEAN_MOTION_DDOT":0}]
