GRBBETA                 
1 60237U 24128C   26117.17563125  .00005160  00000+0  35608-3 0  9998
2 60237  61.9915  35.1815 0046953 123.9621 236.5948 15.06219971 98583
OOV-CUBE (TUBSAT-30)    
1 60240U 24128F   26117.21517684  .00002949  00000+0  23072-3 0  9990
2 60240  61.9961  43.2739 0050431 122.5712 238.0264 15.02514360 98455
ROBUSTA-3A (MEDITERRAN*)
1 60243U 24128J   26117.18791164  .00010904  00000+0  64654-3 0  9997
2 60243  61.9882  28.4836 0047826 117.6700 242.9260 15.10868737 98717
LASARSAT                
1 62391U 24247Q   26117.21292535  .00038029  00000+0  83957-3 0  9992
2 62391  44.9747 187.9588 0005402   1.1726 358.9174 15.43279568 75438
CROCUBE                 
1 62394U 24247T   26117.20124202  .00042061  00000+0  88197-3 0  9991
2 62394  44.9716 186.0905 0005113 359.4804   0.6079 15.44760331 75456
FORESAIL-1 PRIME        
1 66778U 25276DS  26117.18888309  .00005836  00000+0  28843-3 0  9997
2 66778  97.4218 191.4071 0000831 301.6092  58.5061 15.18224292 22660
KNACKSAT-2              
1 67683U 98067XZ  26116.25625459  .00044626  00000+0  63922-3 0  9990
2 67683  51.6294 194.7914 0012362   5.5713 354.5413 15.55638730 12189
